ARLINK-34501
1 64429U 25129T   26080.90345406  .00005273  00000+0  44924-3 0  9993
2 64429  70.0023  43.7864 0002834 268.3221  91.7614 14.98339791 43113
ARLINK-34441
1 64430U 25129U   26080.88675764  .00005352  00000+0  45584-3 0  9996
2 64430  70.0024  43.7305 0003145 266.9000  93.1799 14.98340342 43115
ARLINK-34524
1 64431U 25129V   26080.93682013  .00003356  00000+0  28883-3 0  9993
2 64431  70.0027  43.5038 0002926 272.0967  87.9857 14.98339154 43065
ARLINK-34506
1 64432U 25129W   26080.92012248  .00006858  00000+0  58171-3 0  9993
2 64432  70.0035  43.4445 0002671 270.7510  89.3343 14.98348914 43062
ARLINK-34451
1 64433U 25129X   26080.90779345  .00004150  00000+0  35522-3 0  9998
2 64433  70.0027  43.7972 0002624 270.9527  89.1331 14.98345129 43059
ARLINK-34472
1 64434U 25129Y   26080.89109518  .00008663  00000+0  73257-3 0  9996
2 64434  70.0026  43.7408 0003990 271.7751  88.2951 14.98346486 43110
ARLINK-34478
1 64435U 25129Z   26080.94115809  .00004773  00000+0  40742-3 0  9994
2 64435  70.0026  43.5175 0002726 269.5203  90.5644 14.98343381 43063
ARLINK-34396
1 64436U 25129AA  26080.89945169 -.00111877  00000+0 -95625-2 0  9994
2 64436  70.0019  43.7611 0011968 257.1804 102.8018 14.98090677 43059
ARLINK-34507
1 64437U 25129AB  26080.92864005 -.00002486  00000+0 -20066-3 0  9991
2 64437  70.0020  43.4712 0002666 270.3102  89.7752 14.98324412 43127
IPER-00055
1 64515U 25134R   26080.53385918  .00020226  00000+0  91614-3 0  9999
2 64515  51.8932 123.9540 0002331  63.9638 296.1582 15.20844828 42628
IPER-00066
1 64526U 25134AC  26080.91667824  .00028620  00000+0  14020-2 0  9993
2 64526  51.8715 126.2730 0003055  48.0453 319.1827 15.17929956  5044
OD ANCESTOR KILAKILA
1 64528U 25135A   26080.81173809  .00012995  00000+0  56198-3 0  9991
2 64528  97.4524 196.5950 0006312 126.0515 234.1307 15.22567490 41584
GSAT-C12
1 64529U 25135B   26080.88918482  .00004644  00000+0  22086-3 0  9994
2 64529  97.4635 196.5637 0006480 113.8450 246.3464 15.19659966 41561
THSAT-2
1 64530U 25135C   26080.77788940  .00019092  00000+0  77441-3 0  9996
2 64530  97.4512 196.9256 0005988 132.7254 227.4489 15.24650054 41609
ANSPORTER-14 OBJECT D
1 64531U 25135D   26080.94172881  .00017480  00000+0  71872-3 0  9998
2 64531  97.4608 197.3370 0005799 113.3417 246.8431 15.24212041 41628
ANSPORTER-14 OBJECT E
1 64532U 25135E   26080.87693461  .00017777  00000+0  73098-3 0  9994
2 64532  97.4621 197.2929 0005812 113.1099 247.0752 15.24206442 41619
A-1
1 64533U 25135F   26080.77908955  .00005328  00000+0  24502-3 0  9996
2 64533  97.4575 196.5061 0006480 127.1434 233.0394 15.20757589 41567
NNECTA IOT-9
1 64534U 25135G   26080.82846647  .00004549  00000+0  21539-3 0  9993
2 64534  97.4649 196.5603 0006917 111.7933 248.4038 15.19822677 41553
ADS 1
1 64535U 25135H   26080.89146573  .00009343  00000+0  41955-3 0  9993
2 64535  97.4564 196.6253 0005902 119.5617 240.6207 15.21370657 41584
SSASAT-2E21
1 64536U 25135J   26080.90355152  .00003670  00000+0  17642-3 0  9994
2 64536  97.4541 196.2435 0005558 122.7092 237.4680 15.19425230 41560
TER PUP 2
1 64537U 25135K   26079.26895623  .00017670  00000+0  74511-3 0  9997
2 64537  97.4589 195.2332 0004367 125.3972 234.7673 15.23363462 41342
D-2
1 64538U 25135L   26080.89092324  .00005901  00000+0  28007-3 0  9999
2 64538  97.4590 196.4106 0006036 116.8174 243.3679 15.19618062 41561
ARASAT MMS-1
1 64539U 25135M   26080.89090891  .00007061  00000+0  31147-3 0  9995
2 64539  97.4617 196.9674 0004627 116.3147 243.8565 15.22078103 41598
LSAR-0
1 64541U 25135P   26080.86121299  .00004863  00000+0  23101-3 0  9990
2 64541  97.4588 196.4327 0004468 118.8555 241.3128 15.19687102 41567
DES 1 (DRAGOON 1)
1 64542U 25135Q   26080.85144808  .00016325  00000+0  67325-3 0  9993
2 64542  97.4595 197.2658 0004388 117.5706 242.5977 15.24133489 41618
SERIES 4
1 64543U 25135R   26080.89507827  .00050405  22259-5  61133-3 0  9996
2 64543  97.4505 193.7082 0402481  24.9859 337.0264 15.01315575 41351
YBEE-A02
1 64544U 25135S   26080.90066220  .00003810  00000+0  18224-3 0  9991
2 64544  97.4620 196.6364 0003382  95.3746 264.7875 15.19588429 41576
N SCV-020
1 64545U 25135T   26080.88558036  .00004855  00000+0  22493-3 0  9993
2 64545  97.4598 196.7443 0003435 113.5839 246.5757 15.20556719 41582
RGESTAR-1
1 64546U 25135U   26080.88404731  .00010808  00000+0  46452-3 0  9992
2 64546  97.4579 197.1332 0002276 109.8638 250.2844 15.22838832 41615
ANSPORTER-14 OBJECT V
1 64547U 25135V   26080.74966584  .00012622  00000+0  52963-3 0  9997
2 64547  97.4519 196.9483 0001771 131.1128 229.0262 15.23613129 41603
GSAT-C13
1 64548U 25135W   26080.93359039  .00004829  00000+0  22516-3 0  9991
2 64548  97.4663 197.0484 0002610  79.0746 281.0782 15.20341921 41594
ADS 2
1 64549U 25135X   26080.88364312  .00010094  00000+0  43631-3 0  9998
2 64549  97.4674 197.4621 0002585  75.8456 284.3068 15.22664164 41623
O-18
1 64550U 25135Y   26080.91896661  .00005768  00000+0  26218-3 0  9995
2 64550  97.4520 196.7384 0001911 135.1274 225.0117 15.21134747 41606
TMAR
1 64551U 25135Z   26080.87457634  .00012388  00000+0  52083-3 0  9999
2 64551  97.4507 197.0734 0001664 147.4180 212.7160 15.23552899 41629
PERFIELD-1B
1 64552U 25135AA  26080.94867479  .00006493  00000+0  29125-3 0  9991
2 64552  97.4559 196.9652 0000883 135.0476 225.0831 15.21545427 41615
NNECTA IOT-12
1 64553U 25135AB  26080.83330794  .00005225  00000+0  23663-3 0  9998
2 64553  97.4634 197.0980 0001516  59.2912 300.8473 15.21309271 41598
NNECTA IOT-10
1 64555U 25135AD  26080.88546494  .00004926  00000+0  22777-3 0  9993
2 64555  97.4575 196.8099 0000668 130.1485 229.9809 15.20617543 41590
ANSPORTER-14 OBJECT AE
1 64556U 25135AE  26080.79010364  .00013603  00000+0  55970-3 0  9999
2 64556  97.4634 197.6058 0001993  48.8334 311.3075 15.24257991 41627
NNECTA IOT-11
1 64557U 25135AF  26080.58346890  .00005400  00000+0  24618-3 0  9994
2 64557  97.4605 196.7187 0000741  33.1701 326.9581 15.21065798 41559
ICK3
1 64558U 25135AG  26080.78134841  .00021143  00000+0  84865-3 0  9990
2 64558  97.4634 197.3297 0006703 110.3099 249.8859 15.24977911 41523
ANSPORTER-14 OBJECT AJ
1 64560U 25135AJ  26080.87532754  .00007384  00000+0  68387-3 0  9990
2 64560  97.7630 196.3599 0001586 127.5671 232.5694 14.94784310 40866
MUR-2-KRISH
1 64561U 25135AK  26080.77488608  .00008329  00000+0  76107-3 0  9997
2 64561  97.7625 196.3716 0001092 110.0055 250.1284 14.95279197 40850
3VA
1 64563U 25135AM  26080.77375779  .00009369  00000+0  83980-3 0  9995
2 64563  97.7565 196.3447 0002944 184.6050 175.5144 14.95995242 40867
ME FLIES
1 64564U 25135AN  26080.82353776  .00003736  00000+0  35330-3 0  9993
2 64564  97.7601 196.1920 0002124 170.6408 189.4852 14.94278401 40854
EYE-X54
1 64570U 25135AU  26080.90553043  .00004747  00000+0  45064-3 0  9996
2 64570  97.7606 196.2712 0001615 212.0900 148.0222 14.93991141 40863
SAT-3ALPHA
1 64573U 25135AX  26080.95607863  .00001488  00000+0  14078-3 0  9994
2 64573  97.7366 196.1249 0001420 227.1274 132.9827 14.95156677 40860
EYE-X56
1 64574U 25135AY  26080.90733001  .00005194  00000+0  47984-3 0  9994
2 64574  97.7626 196.6424 0001070 237.7859 122.3257 14.95024409 40886
N SCV-018
1 64575U 25135AZ  26080.91791128  .00001256  00000+0  12166-3 0  9999
2 64575  97.7659 196.8453 0011840 218.0483 141.9902 14.94464369 40895
IDE-MS2-HEO-6
1 64576U 25135BA  26080.90268464  .00002914  00000+0  28072-3 0  9996
2 64576  97.7603 196.2410 0002412 239.3002 120.7980 14.93711519 40869
EYE-X57
1 64578U 25135BC  26080.92962888  .00003665  00000+0  29274-3 0  9990
2 64578  97.7663 197.2886 0002401  66.3767 293.7709 15.00881932 40933
EYE-X55
1 64581U 25135BF  26080.95047304  .00005266  00000+0  49145-3 0  9992
2 64581  97.7635 196.5848 0001679 277.6486  82.4544 14.94617343 40886
IDE-MS2-HEO-4
1 64582U 25135BG  26080.91721810  .00003497  00000+0  33296-3 0  9994
2 64582  97.7605 196.3888 0003058 267.9039  92.1831 14.94047751 40871
EYE-X53
1 64584U 25135BJ  26080.95510891  .00006496  00000+0  51511-3 0  9997
2 64584  97.7422 198.0851 0001775 185.6724 174.4480 15.00872526 40991
IDE-MS2-HEO-9
1 64585U 25135BK  26080.96597118  .00002783  00000+0  26540-3 0  9995
2 64585  97.7638 196.5776 0002610 279.5242  80.5683 14.94149479 40883
MUR-2-SEJONG-2
1 64586U 25135BL  26080.90263361  .00007609  00000+0  68567-3 0  9997
2 64586  97.7571 196.6321 0003640 250.7796 109.3031 14.95852986 40899
IDE-MS2-HEO-8
1 64587U 25135BM  26080.94816644  .00003212  00000+0  30473-3 0  9991
2 64587  97.7624 196.5355 0002971 263.0620  97.0262 14.94247605 40887
FROST-DNK
1 64588U 25135BN  26080.89534552  .00003208  00000+0  30497-3 0  9992
2 64588  97.7630 196.4830 0003012 279.4990  80.5890 14.94164860 40874
TORO-T3
1 64589U 25135BP  26080.90232175  .00002284  00000+0  21982-3 0  9993
2 64589  97.7601 196.3979 0003651 258.8621 101.2189 14.93960729 40876
ANSPORTER-14 OBJECT BQ
1 64590U 25135BQ  26080.78295561  .00002155  00000+0  20885-3 0  9997
2 64590  97.7603 196.2345 0004069 259.4323 100.6439 14.93733660 40857
2A
1 64591U 25135BR  26080.91011056  .00008074  00000+0  72040-3 0  9994
2 64591  97.7570 196.7865 0004450 254.1840 105.8891 14.96217196 40902
WK-12C
1 64621U 25138A   26080.89059207  .00006029  00000+0  30339-3 0  9991
2 64621  97.4364  84.8630 0016106  87.4804 272.8273 15.17470499 40628
WK-12B
1 64622U 25138B   26080.89071388  .00006095  00000+0  30682-3 0  9990
2 64622  97.4490  85.3701 0015070  83.3159 276.9790 15.17468200 40627
WK-12A
1 64623U 25138C   26080.89049787  .00006249  00000+0  31434-3 0  9996
2 64623  97.4425  85.1151 0016195  83.2360 277.0716 15.17468826 40629
STREL-0A
1 64624U 25138D   26080.94994446  .00017075  00000+0  75908-3 0  9997
2 64624  97.4426  85.9537 0015806  73.5053 286.7918 15.21464962 40674
